NUSAT-49 (KLARA DAN VO*)
1 60500U 24149AJ  26068.79810190  .00012912  00000+0  43568-3 0  9991
2 60500  97.3807 150.7380 0001132 286.7761  73.3356 15.30828857 86935
STARLINK-36075          
1 66905U 25283AD  26068.26290423  .00009507  00000+0  33325-3 0  9995
2 66905  53.1623  26.5141 0001156 128.6218 231.4886 15.30145175 15772
